{
    "links": {
        "self": "http://www.neowsapp.com/rest/v1/neo/3601676?api_key=iIulBulltgU6a56xZRHN4H3l9WmuAYTsLGpBGhQ2"
    },
    "id": "3601676",
    "neo_reference_id": "3601676",
    "name": "(2012 FV35)",
    "designation": "2012 FV35",
    "nasa_jpl_url": "http://ssd.jpl.nasa.gov/sbdb.cgi?sstr=3601676",
    "absolute_magnitude_h": 25.1,
    "estimated_diameter": {
        "kilometers": {
            "estimated_diameter_min": 0.0253837029,
            "estimated_diameter_max": 0.0567596853
        },
        "meters": {
            "estimated_diameter_min": 25.3837029364,
            "estimated_diameter_max": 56.7596852866
        },
        "miles": {
            "estimated_diameter_min": 0.0157726969,
            "estimated_diameter_max": 0.0352688224
        },
        "feet": {
            "estimated_diameter_min": 83.279867942,
            "estimated_diameter_max": 186.2194458756
        }
    },
    "is_potentially_hazardous_asteroid": false,
    "close_approach_data": [
        {
            "close_approach_date": "2011-09-04",
            "close_approach_date_full": "2011-Sep-04 08:09",
            "epoch_date_close_approach": 1315123740000,
            "relative_velocity": {
                "kilometers_per_second": "7.7337618829",
                "kilometers_per_hour": "27841.5427785438",
                "miles_per_hour": "17299.6519559235"
            },
            "miss_distance": {
                "astronomical": "0.4854540737",
                "lunar": "188.8416346693",
                "kilometers": "72622895.408343019",
                "miles": "45125774.6967669022"
            },
            "orbiting_body": "Earth"
        },
        {
            "close_approach_date": "2012-03-06",
            "close_approach_date_full": "2012-Mar-06 08:14",
            "epoch_date_close_approach": 1331021640000,
            "relative_velocity": {
                "kilometers_per_second": "8.8794715585",
                "kilometers_per_hour": "31966.0976105891",
                "miles_per_hour": "19862.4899292019"
            },
            "miss_distance": {
                "astronomical": "0.0524144576",
                "lunar": "20.3892240064",
                "kilometers": "7841091.214165312",
                "miles": "4872228.1522608256"
            },
            "orbiting_body": "Earth"
        }
    ],
    "orbital_data": {
        "orbit_id": "5",
        "orbit_determination_date": "2017-04-06 08:50:19",
        "first_observation_date": "2012-03-24",
        "last_observation_date": "2012-03-31",
        "data_arc_in_days": 7,
        "observations_used": 15,
        "orbit_uncertainty": "9",
        "minimum_orbit_intersection": ".0250544",
        "jupiter_tisserand_invariant": "4.942",
        "epoch_osculation": "2456012.5",
        "eccentricity": ".3595626924818932",
        "semi_major_axis": "1.295682649741634",
        "inclination": "5.818196563662365",
        "ascending_node_longitude": "194.1199643840845",
        "orbital_period": "538.6992758430537",
        "perihelion_distance": ".8298035075984581",
        "perihelion_argument": "263.6045811405109",
        "aphelion_distance": "1.761561791884809",
        "perihelion_time": "2455940.565047657867",
        "mean_anomaly": "48.07242928374136",
        "mean_motion": ".6682763763448674",
        "equinox": "J2000",
        "orbit_class": {
            "orbit_class_type": "APO",
            "orbit_class_description": "Near-Earth asteroid orbits which cross the Earth’s orbit similar to that of 1862 Apollo",
            "orbit_class_range": "a (semi-major axis) > 1.0 AU; q (perihelion) < 1.017 AU"
        }
    },
    "is_sentry_object": false
}